{
  "fetched_at": "2026-04-22T13:27:42.625719+00:00",
  "satellites": {
    "57166": {
      "name": "Meteor M2-3",
      "tle_line1": "1 57166U 23091A   26112.31012772 -.00000009  00000+0  14912-4 0  9995",
      "tle_line2": "2 57166  98.6129 168.4186 0003487 350.5535   9.5578 14.24041886146568"
    },
    "59051": {
      "name": "Meteor M2-4",
      "tle_line1": "1 59051U 24039A   26112.26142322  .00000013  00000+0  25633-4 0  9998",
      "tle_line2": "2 59051  98.6971  72.2763 0006672 341.1467  18.9463 14.22423370111312"
    },
    "38771": {
      "name": "MetOp-B",
      "tle_line1": "1 38771U 12049A   26112.22835547  .00000065  00000+0  49460-4 0  9997",
      "tle_line2": "2 38771  98.6556 164.8305 0003265 132.4789 227.6665 14.21431923705314"
    },
    "43689": {
      "name": "MetOp-C",
      "tle_line1": "1 43689U 18087A   26112.25060274  .00000066  00000+0  49889-4 0  9995",
      "tle_line2": "2 43689  98.6685 172.8654 0001047  43.8484 316.2776 14.21510545386883"
    }
  }
}